Company,Last Name,First Name,Mobile Phone,Phone,Zip,State,City,Address 1,WebSite,E-mail,Contact
5050 Photo Booth,Armijo,Garrett,,+1 (210) 243-4767,78233,TX,San Antonio,6316 Green Top Dr.,www.5050photobooth.com,garrett@5050photobooth.com,Garrett & Elizabeth Armijo
Absolute Rentals,Lepp,Cyndi,,+1 (210) 696-5376,78238,TX,San Antonio,"7300 Caribou Street, Suite 1",www.absoluterentals.net,absolute_rentals@yahoo.com,Cyndi Lepp
Absolutely Delicious Catering,Segovia,Veronica,+1 (210) 392-7413,+1 (210) 342-2321,78216,TX,San Antonio,10223 Sahara,www.AbsolutelyDelicious.com,veronica@absolutelydelicious.com,Veronica Segovia
Adam Swift Photography,Swift,Adam,,+1 (562) 256-0370,78251,TX,San Antonio,3010 West Loop 1604 North Apt 6104,www.adamswiftphotography.com,info@adamswift.com,Adam Swift
Alamo City Dermatology,Sauceda,Ana,,+1 (210) 615-8460,78229,TX,San Antonio,2829 Babcock Rd,www.saucedadermatology.com,doreen@saucedadermatology.com,Ana Sauceda
Alamo City Party Rents,Mimiaga,Imelda,,+1 (210) 735-6137,78201,TX,San Antonio,931 W. Hildebrand Ave.,www.alamocitypartyrents.com,info@alamocitypartyrents.com,Imelda  E. Mimiaga
Alamo City Popcorn,Boulet,Leslie,,+1 (210) 455-0138,78232,TX,San Antonio,16634 San Pedro Ave. Ste 1,www.alamocitypop.corn,info@alamocitypopcorn.com,Leslie Boulet
Alamo Plants & Petals,Dylla,Ann-Marie,,+1 (210) 828-2628,78209,TX,San Antonio,119 W. Sunset,www.alamoplantsandpetals.com,annmarie@alamoplantsandpetals.com,Ann-Marie Dylla
Ali B. Beauty,Bisnov,Ali,,+1 (704) 497-5032,78006,TX,Boerne,89 Radiance,www.alibbeauty.squarespace.com,abisnov@gmail.com,Ali Bisnov
All In The Details Events,Gaines,Melissa,,+1 (210) 865-6150,78213,TX,San Antonio,"1945 Lockhill Selma Road, Suite 205",www.allinthedetails.events,melissa@inthedetailsevents.org,Melissa Gaines
"Allen Farmhaus, The",Kraft,Cassie,,+1 (830) 358-3333,78130,TX,New Braunfels,2606 FM 758,www.theallenfarmhaus.com,info@theallenfarmhaus.com,Cassie Kraft
Allison Jeffers Photography,Jeffers,Allison,,+1 (830) 377-2222,78028,TX,Kerrville,116 Oak Way,https://allisonjeffers.com,hello@allisonjeffers.com,Allison Jeffers
Aly Am Paperie Invitations & Gifts,Olivares,Gretchen,+1 (210) 355-5802,+1 (210) 375-8400,78213,TX,San Antonio,"1919 Lockhill-Selma, Ste 103",www.alyampaperie.com,art@alyampaperie.com,Gretchen Olivares
Anna Kay Photography,Wright,Anna,,+1 (513) 582-6212,78154,TX,Schertz,1529 Rainy Brk,https://annakayphotography.net,wrightannak@gmail.com,Anna Kay Wright
Anne Marie's Catering,Luna,Ruben,+1 (210) 559-6941,+1 (210) 545-2249,78216,TX,San Antonio,12475 Starcrest,www.AnneMaries.com,ruben@annemaries.com,Ruben Luna
Ara Photography,Dunston,Rocelyn,+1 (210) 683-2795,+1 (210) 683-2795,78261,TX,San Antonio,25634 Weigela,www.araphotography.com,araphotography@gmail.com,Rocelyn Dunston
Ardore Photography,Crockett,Dave,+1 (210) 418-0038,+1 (210) 418-0038,78239,TX,San Antonio,5806 Bronco Way,www.ardorephoto.com,passion@ardorephoto.com,Dave & Tracy Crockett
Aria Productions,Freeman,Sonia,,+1 (210) 378-9517,78249,TX,San Antonio,7063 Autumn Park,www.ariaphotovideo.com,sonia@ariaphotovideo.com,Sonia Freeman
Arthur Murray Dance Centers,Ovard,HollyAnn,,+1 (210) 396-3365,78230,TX,San Antonio,2581 Jackson Keller Road,www.ArthurMurraySA.com,sanantonioSdance@gmail.com,HollyAnn Ovard
At Last Entertainment,Fournier,Dominic,,+1 (210) 906-9331,78259,TX,San Antonio,2423 Encino Cedros,www.atlastent.com/,dominic@atlastent.com,Dominic Fournier
Ata-Girl Photography,Blalock,Tammy,,+1 (830) 719-4475,78026,TX,Jourdanton,101 Hickory St.,atagirlphoto.com,tammy@atagirlphoto.com,Tammy Blalock
AzulBlue Journeys,Velasco,Monica,+1 (210) 508-5616,+1 (210) 698-0001,78015,TX,Boerne,8710 Timberland Trail,www.azulbluejourneys.com,monica@azulblueJourneys.com,Monica Velasco
BARBY Faces,DeFils,Shayla,,+1 (318) 820-2995,78251,TX,San Antonio,"9258 Culebra Rd., Ste#131",https://www.barbyfaces.com/,barbylocs@yahoo.com,Shayla DeFils
Bartenders4You,Smith,Jennifer,,+1 210-889-0887,78154,TX,Selma,"9330 Corporate Dr., Ste #504",www.bartenders4you.com,bartenders4you@yahoo.com,Jennifer Smith
Bell Papel,Alvarez,Meredith,,+1 (210) 987-4699,78209,TX,San Antonio,5715 Broadway St.,www.bellpapel.com,meredith@bellpapel.com,Meredith Alvarez
Bella Bride Boutique,Mimari,Alexandra,+1 (956) 459-9975,+1 (210) 451-9602,78258,TX,San Antonio,"18720 Stone Oak Pkwy, Ste. 117",www.bellabrideboutique.com,alemartinezg@yahoo.com,Alexandra Mimari
Bella Bridesmaids,Marcus,Joanna & Stanley,,+1 (210) 556-4680,78209,TX,San Antonio,"5800 Broadway, Ste 201",www.bellabridesmaids.com,stanleymarcus0128@gmail.com,Joanna & Stanley Marcus
Bella on the Vine Event Center,Bester,Jennie,,+1 (210) 658-5261,78109,TX,Converse,8607 FM 1976,https://www.bellaonthevine.com/,jennie.dante@yahoo.com,Jennie Bester
Biga on the Banks,Shea,Perny,+1 (210) 889-5995,+1 (210) 225-0722,78205,TX,San Antonio,"203 S. St. Mary's Street,  Ste 100",www.biga.com,perny@biga.com,Perny Shea
"Blanca's Cakes, Catering & Decor",Valenzuela,Blanca,+1 (210) 663-6570,+1 (210) 680-6333,78251,TX,San Antonio,"7627 Culebra Rd, Suite#115",www.blancascakes.com,blancascake62@yahoo.com,Blanca Valenzuela
Blanco BBQ,Segovia,Veronica,,+1 (210) 342-2321,78216,TX,San Antonio,13259 Blanco Rd,www.blancobbq.com,veronica@absolutelydelicious.com,Veronica Segovia
Blooms by HEB,Garza,Margaret,,+1 (210) 383-7665,78204,TX,San Antonio,641 South Flores St. 2nd Floor,,garza.margaret@heb.com,Margaret Garza
Blush and The Bride,Nelson,Alyssa,+1 (210) 305-6735,+1 (907) 602-7571,78247,TX,San Antonio,2838 N Loop 1604 E Suite 10,https://blushandthebride.com/,alyssanelson35@gmail.com,Alyssa Nelson
Blush Make-up & Hair,Amos,Ashley,,+1 (210) 842-3794,78232,TX,San Antonio,"2540 Thousand Oaks, Ste 103",www.facesbyblush.com,facesbyblush@yahoo.com,Ashley Amos
Braid N'Hairpins Makeup & Hair,Aguilar,Ronee,,+1 (210) 852-9795,78253,TX,San Antonio,12131 Bowie Mill,www.braidnhairpins.com,phoebekins2@yahoo.com,Ronee Klingman Aguilar
Brick at Blue Star,Ciarfeo,Elizabeth,+1 (210) 262-8653,+1 (210) 707-7474,78204,TX,San Antonio,108 Blue Star,www.BrickatBlueStar.com,eciarfeo@aol.com,Elizabeth Ciarfeo
Bridal Connection at Stone Oak,Garcia,Roman & Rafaela,+1 (210) 663-5974,+1 (210) 967-4696,78232,TX,San Antonio,"923 N. Loop 1604 E., Ste 106",www.bridalconnectionsa.com,bridal.connection@yahoo.com,Roman & Rafaela Garcia
Bridal Galleria,Montemayor,Gloria,+1 (210) 480-6251,+1 (210) 342-5752,78216,TX,San Antonio,7319 San Pedro Ave.,www.bridalgalleriaoftexas.com,Bridal.galleria@gmail.com,Gloria Montemayor
Bride on a Budget Events San Antonio,Villalobos,Mitzi,+1 (210) 915-2137,+1 (210) 954-4552,78225,TX,San Antonio,1117 W Theo Ave,https://www.bbsanantonioweddingplanners.com,brideonabudgetsa@gmail.com,Mitzi Villalobos
Brides by Elizabeth,Ashmore,Teresa,+1 (210) 621-7523,+1 (210) 408-4560,78248,TX,San Antonio,1120 West Blanco Road,www.bridesbyelizabeth.com,info@bridesbyelizabeth.com,Teresa Ashmore
Briscoe Western Art Museum c/o Helen Thompson Media,Schneider,Stacey,,+1 (210) 822-2158,78209,TX,San Antonio,8035 Broadway,,stacey@helentmedia.com,Stacey Schneider
Cadillac Bar & Restaurant,Medina,Jesse,,+1 (210) 223-5533,78204,TX,San Antonio,212 S. Flores,www.CadillacBarSanAntonio.com,cadillacbar1955@yahoo.com,Jesse Medina
Caitlin's Creations Photography & Design,Hudnall,Caitlin,,+1 (210) 452-0784,78213,TX,San Antonio,1945 Lockhill-Selma #205,www.ccportraitdesign.com,caitlins_creations@hotmail.com,Caitlin Hudnall
Cake Art,Herrera,Monique,,+1 (210) 277-0308,78259,TX,San Antonio,"18402 US Hwy 281 N., Suite #107",www.cakeartsa.com,monique@cakeartsa.com,Monique Herrera
"Cake Shop, The",Sunderland,Begona,+1 (210) 617-6117,+1 (210) 561-1700,78230,TX,San Antonio,9871 IH-10 West,www.thecakeshopsat.com,mabesun@gmail.com1,Begona Sunderland
Cakes & More Bake Shop,Gallagher,Cynthia,+1 (210) 859-1365,+1 (210) 494-3959,78216,TX,San Antonio,"5525 Blanco Rd., Ste. 122",www.sacakes.com,Cynthia@sacakes.com,Cynthia Gallagher
Cakes Couture,Hollon,Rhonda,+1 (409) 998-4107,+1 (830) 327-1182,78130,TX,New Braunfels,"2031 Central Plaza, Suite 105",http://cakescouturenb.com,1cakescouture@gmail.com,Rhonda Hollon
Cakes Rock San Antonio,Miller,Shanna,,+1 (210) 865-5653,78015,TX,Boerne,8614 Carmel Rose,http://www.cakesrockaustintx.com/,cakesrock.sa@gmail.com,Shanna Miller
Canyon Lake Cabins & Cottages,Swedoski,Melissa,,+1 (830) 935-3430,78133,TX,Canyon Lake,21400 FM 306,http://www.canyonlakecabinscottagestexas.com/weddings,clcabins@gmail.com,Melissa Swedoski
Canyon Lakeview Resort,Hopper,Bonnie,,+1 (210) 787-1770,78133,TX,Canyon Lake,872 Ledgerock Drive,www.canyonlakeviewresort.com,clvrmanager@gmail.com,Bonnie Hopper
Canyon Springs Golf Club,Willis,Brenda,+1 (210) 865-2945,+1 (210) 497-1770,78260,TX,San Antonio,24405 Wilderness Oak,www.canyonspringsvenues.com,bwillis@arcisgolf.com,Brenda Willis
Carriage Hills Ranch,Bushong-Steinmetz,Michelle,,+1 (512) 222-9821,78606,TX,Blanco,125 Moore Lane,www.carriagehillsranch.com,carriagehillsranchtx@gmail.com,Michelle Bushong-Steinmetz
Cedar & Oak Entertainment and Events LLC,Bisnov,Benji,+1 (704) 497-5008,+1 (830) 431-5032,78249,TX,San Antonio,4714 Shavano Oak#1,candoentertain.com,benji.bisnov@candoentertain.com,Benji Bisnov
Chairish The Day,Cates,Shaunna,+1 (210) 788-8134,+1 (210) 632-3877,78258,TX,San Antonio,"18360 Blanco Rd, #140 Suite #127",www.chairishtheday.com,chairishtheday@yahoo.com,Shaunna Cates
"Chandelier of Gruene, The",Zunker,Myra,,+1 (830) 237-9229,78132,TX,New Braunfels,1924 Bretzke Lane,www.chandelierofgruene.com,myra@chandelierofgruene.com,Myra Zunker
Charity Teague Confections,Teague,Charity,,+1 (210) 426-1319,78209,TX,San Antonio,144 Pinecrest Blvd #3,https://www.charityteague.com/,contact@charityteague.com,Charity Teague
Chic Concepts Event Planning & Interior Design,Orozco,Nicolette,+1 (210) 884-2820,+1 (210) 884-2820,78247-2178,TX,San Antonio,15707 Knolltrail,www.chicconceptstx.com,norozco@chicconceptstx.com,Nicolette Orozco
Chicken Scratch Photography,Pawelek,Amanda,+1 (830) 570-5512,+1 (830) 570-5512,78064,TX,Pleasanton,628 Sutton St,www.chickenscratchphotography.com,hello@chickenscratchphotography.com,Amanda Pawelek
Christian Ellis Images,Beauchamp,Anthony,,+1 (210) 373-8660,78006,TX,Boerne,134 Newcourt Place,www.christianellisimages.com,christianellisimages@gmail.com,Anthony Beauchamp
Christian Margain Photography,Margain,Christian,,+1 (210) 860-6356,78209,TX,San Antonio,327 W Sunset Rd. Apt 2143,www.christianmargain.com,info@christianmargain.com,Christian Margain
Christopher Hall - Knights of Columbus Council 7613,Committee,Christopher,+1 (210) 559-3571,+1 (210) 404-9101,78270,TX,San Antonio,PO Box 700552,www.ChristopherHall.org,CHinfo@KofC7613.org,Christopher Hall Operations Committee
"Club at Garden Ridge, The",DeBaun,Kristi,,+1 (210) 651-6505,78266,TX,Garden Ridge,21320 Water Wood Drive,www.GardenRidgeWeddings.com,kristi@theclubatgardenridge.com,Kristi DeBaun
"Club at Sonterra, The",Ramirez,Ninette,,+1 (210) 496-1560,78258,TX,San Antonio,901 Sonterra Blvd.,www.ClubAtSonterra.com,nramirez@clubatsonterra.com,Ninette Ramirez
Coffeecionado,Butler,Patricia,,+1 (210) 618-3654,78204,TX,San Antonio,502 W. Mitchell,https://coffeecionado.coffee/,info@coffeecionado.coffee,Patricia Butler
Courtyard by Marriott SeaWorld Westover Hills,Brewer,Courtney,,+1 (210) 591-6726,78251,TX,San Antonio,11605 State Hwy 151,www.marriott.com/satcw,courtney.brewer@marriott.com,Courtney Brewer
Couture Events,McCarty,Jill,,+1 (830) 481-6275,78130,TX,New Braunfels,944 Dunlap Drive,coutureeventsbyjill.com,jill@coutureeventsbyjill.com,Jill McCarty
Creations Cakes,Martinez,Susie,,+1 (830) 281-3222,78064,TX,Pleasanton,122 N. Bryant,www.creationscakes.com,creationscakes55@yahoo.com,Susie Martinez
Crown Ridge Event Center,Alarcon,Alex,+1 (210) 698-0414,+1 (210) 452-7871,78256,TX,San Antonio,6909 Camp Bullis Road,www.CrownRidgeBanquetHall.com,alex@crownridgebanquethall.com,Alex Alarcon
Cru Vintage Rentals,Love,Laurie,,+1 (210) 364-2663,78015,TX,Boerne,26930 Oleander Chase,www.CruRentals.com,llove@crurentals.com,Laurie Love
"Crystal Room, The",Segovia,Veronica,,+1 (210) 342-2321,78216,TX,San Antonio,10223 Sahara,www.TheOldSanFrancisco.com,veronica@absolutelydelicious.com,Veronica Segovia
Cutting Edge Entertainment,Peene,Ron,+1 (210) 336-8636,+1 (210) 495-3900,78216,TX,San Antonio,10408 Gulfdale,www.CuttingEdgeEntertainment.com,ron@cuttingedgeentertainment.com,Ron Peene
David Pezzat Photographers,Pezzat,David,,+1 (210) 414-2382,78023,TX,Helotes,8939 Saxon Forest,http://www.davidpezzat.com/,info@davidpezzat.com,David Pezzat
De Vinnie's Paradise,Arispe,Irma,+1 (210) 885-1052,+1 (210) 885-1052,78228,TX,San Antonio,415 W. Midcrest Drive,www.devinnies.com,Devinniesparadise@msn.com,Irma Arispe
Debi's Bridal Shop,Gutierrez,Jay,+1 (210) 273-2625,+1 (210) 923-6288,78221,TX,San Antonio,814 S.W. Military Dr.,www.debisbridal.com,Jay@debisbridal.com,Jay Gutierrez
Detailed by Raemie Jones,Jones,Raemie,+1 (210) 827-6065,+1 (210) 736-1153,78219,TX,San Antonio,1935 Shipman Drive,www.RJDetailed.com,Raemie@RJDetailed.com,Raemie Jones
Diamonds & Dreams,Humphrey,Tina,+1 (210) 413-7102,+1 (830) 947-4461,78101,TX,Adkins,754 Fuller Lane,www.diamonds-dreams.com,tinasevents@gmail.com,Tina Humphrey
Diamonds Direct,Mashiach,Almog,,+1 (210) 247-9197,78256,TX,San Antonio,15900 La Cantera Pky. Bldg 18,https://diamondsdirect.com/sanantonio,almog@diamondsdirect.com,Almog Mashiach
"Dominion Country Club, The",Lauzon,Jennifer,,+1 (210) 698-4816,78257,TX,San Antonio,One Dominion Drive,www.The-Dominion.com,jwright@the-dominion.com,Jennifer Lauzon
Dos Kiwis Studio,Miller,Dane,+1 (210) 325-6888,+1 (210) 325-6888,78201,TX,San Antonio,1112 West Ave,www.doskiwis.com,dane@doskiwis.com,Dane Miller
DoubleTree By Hilton Airport,there,No,,+1 (210) 366-2424,78216,TX,San Antonio,37 N.E. Loop 410 @ McCullough,https://doubletree3.hilton.com/en/hotels/texas/doubletree-by-hilton-hotel-san-antonio-airport-SATNSDT/index.html?SEO_id=GMB-DT-S,sandy.clinton@dtsanantonio.com,Sandy Clinton - No longer there
Doubletree San Antonio Downtown,Valle,Christine,,+1 (210) 388-0306,78207,TX,San Antonio,502 W. Cesar Chavez,https://doubletree3.hilton.com/en/hotels/texas/doubletree-by-hilton-hotel-san-antonio-downtown-SATDWDT/index.html,christine.valle@hilton.com,Christine Valle
DPC Event Services,Cheney,David,,+1 (210) 912-2187,78216,TX,San Antonio,14501 Blanco Road,www.dpceventservices.com,info@dpceventservices.com,David Cheney
Dreams Do Come True,Wilson,Francine,,+1 (210) 389-8721,78240,TX,San Antonio,"5460 Babcock Road, Suite 120",www.dreamsdocometruesa.com,francine@dreamsdocometruesa.com,Francine Wilson
Eagle Dancer Ranch,Aguirri,Jason,,+1 (210) 508-0344,78006,TX,Sisterdale,1621 FM 473 l,www.eagledancerranch.com,info@eagledancerranch.com,Jason Aguirri
Eden's Echo Floral Design,McLarty,Erin,,+1 (210) 249-1058,78109,TX,Converse,9703 Fortune Ridge Drive,www.edensecho.com,erin.mclarty@gmail.com,Erin McLarty
Elevate Bartending,Falloon,Gabriele,,+1 (214) 929-1872,78753,TX,Austin,907 Hermitage,http://www.elevatebartending.com/,gabby@elevatebartending.com,Gabriele Falloon
Elite Sound Productions,Vazquez,Efrain,+1 (210) 306-1071,+1 (210) 306-1071,78249,TX,San Antonio,"6391 De Zavala Road, Suite 221",www.elitesoundproductions.com,info@elitesoundproductions.com,Efrain Vazquez
Elliott Hamilton Photography,Hamilton,Elliott,,+1 (210) 680-0318,78250,TX,San Antonio,8514 Timber Briar,www.ElliottHamiltonPhotography.com,ElliottHamiltonPhotography@Outlook.com,Elliott Hamilton
Embassy Suites by Hilton Brooks Hotel,Hernandez,Tara,+1 (210) 982-4024,+1 (210) 534-1000,78235,TX,San Antonio,3201 Sidney Brooks,www.embassysuites.hilton.com/SanAntonio,tara.hernandez@hilton.com,Tara Hernandez
Embassy Suites San Antonio Landmark,Zimmerman,Aaron,+1 (512) 360-7222,+1 (210) 270-0800,78249,TX,San Antonio,5615 Landmark Parkway,www.sanantoniolandmark.embassysuitesbyhilton.com,aaron.zimmerman@hilton.com,Aaron Zimmerman
Emporium By Yarlen,Cavazos,Yaramin,+1 (210) 669-4569,+1 (210) 627-9800,78214,TX,San Antonio,2218 E. Chavaneaux Rd.,www.EmporiumbyYarlen.com,yarlenbridal@ymail.com,Yaramin Cavazos
Evember Floral & Event Design,Rodgers,Angie,,+1 (210) 710-4792,78154,TX,Selma,"9330 Corporate Drive #604,",www.evember.com,angie@evember.com,Angie Rodgers
Event Ignition,Burton,Frank,,+1 (210) 379-8517,78238,TX,San Antonio,"5405 Bandera Road, Ste 130",www.eventignition.com,frank@eventignition.com,Frank Burton
Events by Touch of Elegance,Garza,Mario,+1 (210) 273-9948,+1 (830) 620-7018,78219,TX,San Antonio,3978 Interstate 35 Frontage Road,www.touchofelegancedecor.com,info@touchofelegancedecor.com,Mario & Sandra Garza
Everlasting Elopements,Taylor-Esparza,Kari,,+1 (210) 860-5680,78232,TX,San Antonio,14307 Turtle Rock Dr.,www.Everlastingelopements.com,info@everlastingelopements.com,Kari Taylor-Esparza
Evrafter Studio,Kittrell,Matt,+1 (210) 707-1380,+1 (210) 951-6564,78006,TX,Boerne,136 Old San Antonio #104,https://www.evraftr.com,matt@evraftr.com,Matt Kittrell
Fair Oaks Ranch Golf & Country Club,Johnson,Deedy,,+1 (210) 582-6700,78015,TX,Fair Oaks Ranch,7900 Fair Oaks Pkwy,www.FairOaksClub.com,deedy.johnson@clubcorp.com,Deedy Johnson
"Fairmount Hotel, The",Harber,Sara,,+1 (210) 224-8800,78205,TX,San Antonio,401 S. Alamo St.,www.thefairmounthotel-sanantonio.com,sara@siloelevatedcuisine.com,Sara Harber
"Faithful Maker, The",Garcia,Caroline,,+1 (210) 420-1564,78230,TX,San Antonio,9898 Colonnade Blvd Apt#9107,https://thefaithfulmaker.com/,thefaithfulmaker@gmail.com,Caroline Garcia
Feedback Catering,Ramirez-Sotelo,Juan,+1 (210) 387-4315,+1 (210) 387-4315,78219,TX,San Antonio,3414 E. Commerce,www.feedbackcatering.com,sales@feedbackcatering.com,Juan Carlos Ramirez-Sotelo
"Firefly Farm, The",Skogman,Payton,,+1 (512) 648-1285,78676,TX,Wimberley,13633 FM 2325,http://www.fireflyfarmevents.com/,info@fireflyfarmevents.com,Payton Skogman
First Protestant Church,Schaeffer,Doreen,,+1 (830) 609-7729,78130,TX,New Braunfels,172 W. Coll St.,www.firstprotestant.com,doreen@firstprotestant.com,Doreen Schaeffer
Five Star Wedding Gown Specialists,Thum,Sharlene,+1 (210) 771-3777,+1 (210) 771-3777,78240,TX,San Antonio,"9806 Huebner Rd., Ste 1",www.FiveStarWeddingGown.com,sharlenethum@yahoo.com,Sharlene Thum
Flair Floral,De Los Santos,Oscar,,+1 (210) 363-8472,78219,TX,San Antonio,"1107 AT&T Center Pkwy, Ste 111",,odelossantos@therkgroup.com,Oscar De Los Santos
Flair Floral,Flores,Michelle,,+1 (210) 223-2742,78219,TX,San Antonio,"1107 AT&T Center Pkwy, Ste 111",www.therkgroup.com/flair,mflores@therkgroup.com,Michelle Flores
Floral Elegance,Pedraza,Adrianna,,+1 (210) 434-1133,78228,TX,San Antonio,1039 Donaldson Ave,www.safloralelegance.com,bloom@safloralelegance.com,Adrianna Pedraza
Four 40 Entertainment,Hinojosa,Jesus,,+1 (213) 944-3937,78238,TX,San Antonio,"6904 Bandera Road, Suite 3",www.Four40entertainment.com,jesus_hinojosa_g@yahoo.com,Jesus Hinojosa
Freesia Designs,Huisman,Jessica,+1 (210) 287-7249,+1 (210) 362-1998,78216,TX,San Antonio,151 W. Rhapsody,www.freesiadesignsevents.com,jessica@freesiadesigns.com,Jessica Huisman
Fresh Horizons Catering,Hasslocher,Caryn,,+1 (210) 226-5919,78215,TX,San Antonio,2020 Broadway,www.FreshHorizons.com,caryn@freshhorizons.com,Caryn Hasslocher
from His garden Event Planning and Floral Decor,Suarez,Lizzette,,+1 (210) 275-2163,78245,TX,San Antonio,P.O. Box 760771,fromhisgardenflowers.com,Lizzette@fromhisgardenflowers.com,Lizzette Suarez
Frosted Delights by Joyce,Sosa,Joyce,+1 (361) 944-5848,+1 (361) 944-5848,78259,TX,San Antonio,17911 Red River Sky,www.frosteddelightsbyjoyce.com,frosteddelights@att.net,Joyce Sosa
Future Sounds,Koval,Chris,,+1 (210) 945-9601,78213,TX,San Antonio,11314 Crest Park,www.future-sounds.com,events@future-sounds.com,Chris Koval
Gaines Entertainment,Gaines,Winston,,+1 (210) 995-3626,78270,TX,San Antonio,P.O. Box 702037,www.gainesentservices.com,winston@gainesentservices.com,Winston Gaines
"Gala Event Catering & Events, A",Ibarra,Jose,,+1 (210) 264-1395,78238,TX,San Antonio,5317 Jackwood Drive,,jose@agalaeventcatering.com,Jose Ibarra
Gardens of Cranesbury View,Templeton,Amy,,+1 (830) 515-9231,78132,TX,New Braunfels,1470 S. Cranes Mill Rd.,www.cranesburyview.com,amy@cranesburyview.com,Amy Templeton
"Girl General, The",Gibson-George,Anne,,+1 (210) 495-6200,78230,TX,San Antonio,"11255 Huebner Road, Suite 204",https://thegirlgeneral.com/,paper@girlgeneral.com,Anne Gibson-George
Got It Covered Events,Valadez,Martha,+1 (210) 884-0812,+1 (210) 967-3183,78238-4506,TX,San Antonio,1868 Grandstand Drive,www.gotitcoveredsa.com,martha@gotitcoveredsa.com,Martha Valadez
Great Events and Rentals,Cambell,Allison,,+1 (210) 340-2007,78217,TX,San Antonio,9315 Broadway Ste 104,www.greateventrentals.com,allison@greateventrentals.com,Allison Cambell
Greg Reese Events,Reese,Greg,+1 (210) 836-6432,+1 (210) 758-8001,78216,TX,San Antonio,402 West Rhapsody,www.GregReeseEvents.com,Greg@GregreeseEvents.com,Greg Reese
Gruene Estate,Bluntzer,Nolan,+1 (830) 358-6363,+1 (830) 609-8664,78130,TX,New Braunfels,532 Rock Street,grueneestate.com,nbluntzer@gmail.com,Nolan Bluntzer
Guadalajara Grill,Hinojosa,Tina,+1 (210) 710-8241,+1 (210) 710-8241,78205,TX,San Antonio,301 South Alamo,www.guadalajaragrill.us,info@guadalajaragrill.us,Tina Hinojosa
Guenther House,Maldonado,Nicole,+1 (210) 744-2687,+1 (210) 351-6306,78204,TX,San Antonio,205 E. Guenther,www.guentherhouse.com,NMaldonado@chg.com,Nicole Maldonado
Habana Cowboy,Molina,Eric,,+1 (210) 837-0100,78253,TX,San Antonio,5010 Segovia Way,www.habanacowboy.com,eric@habanacowboy.com,Eric Molina
Hacienda Santa Maria,Pozo,Gonzalo,+1 (210) 685-3123,+1 (210) 227-2121,78212,TX,San Antonio,2121 N. St. Mary's Street,www.HaciendaSantaMaria.net,info@haciendasantamaria.net,Gonzalo Pozo
Hair and Makeup by Ana,Salazar,Francisco & Ana,+1 (210) 421-9901,+1 (210) 437-3911,78216,TX,San Antonio,740 Barchester Drive,www.HairandMakeupbyAna.com,hairandmakeupbyana@gmail.com,Francisco & Ana Salazar
Hannah Charis Photography,Droll,Hannah,,+1 (210) 439-1268,78261,TX,San Antonio,26719 Redstone Hill,www.hannahcharis.com,info@hannahcharis.com,Hannah Charis Droll
Harper Hill Ranch,Stanfield,Amy,,+1 (512) 214-1614,78155,TX,Seguin,12300 Huber Rd,https://www.harperhillranch.com,amy@harperhillranch.com,Amy Stanfield
Harvey Jacobs Catering,McBee,Levi,+1 (210) 827-7548,+1 (830) 779-2277,78121,TX,La Vernia,484 Bluebonnet Road,www.hjcatering.com,hlmcbee@gmail.com,Levi McBee
Hayes Hollow at Hidden Falls,,,,,78070,TX,Spring Branch,2222 Bridal Veil,,,
Heavenly BBQ,Ortiz,Loretta,,+1 (210) 496-9090,78213,TX,San Antonio,"5005 West Ave., Ste 1103",www.HeavenlyG.com,info@heavenlyg.com,Loretta Ortiz
"Heavenly Gourmet, LLC",Ortiz,Loretta,+1 (210) 386-3163,+1 (210) 496-9090,78213,TX,San Antonio,"5005 West Ave., Ste 1103",www.HeavenlyG.com,loretta@heavenlyg.com,Loretta Ortiz
HEB - True TX BBQ,Irvin,Kristin,,,,,,,,irvin.kristin@heb.com,Kristin Irvin
HEB Bakery and Cakes,Reibeling,Nadine,,+1 (210) 938-0941,78204,TX,San Antonio,641 S. Flores,https://www.heb.com/static-page/Wedding-Cakes,reibeling.nadine@heb.com,Nadine Reibeling
HEB Marketing,Shipp,Amber,+1 (210) 232-8764,+1 (210) 938-7683,78204,TX,San Antonio,641 S. Flores St.,https://www.heb.com/static-page/Oaks-Crossing,shipp.amber@heb.comBloom,Amber Shipp
HEB Restuarants & Catering,Evans,Randy,+1 (713) 263-4556,+1 (210) 938-0932,78258,TX,San Antonio,23635 Wilderness Oak,https://www.heb.com/static-page/Oaks-Crossing,evans.randy@heb.com,Randy Evans
HEB Wedding Services,Hajek,Amanda,+1 (361) 522-7169,+1 (210) 938-0604,78204,TX,San Antonio,641 South Flores St. 2nd Floor,www.heb.com/blooms,Hajek.amanda@heb.com,Amanda Hajek
Hillside Boutique Hotel,Berryhill,Raquel,,+1 (830) 538-3200,78009,TX,Castroville,1651 US Highway 90 West,https://www.hillsidetexas.com/,celebrate@hillsidetexas.com,Raquel Berryhill
Hilton Palacio del Rio,McCurdy,Sandrine,+1 (210) 331-0159,+1 (210) 224-3393,78205-3213,TX,San Antonio,200 S. Alamo Street,,Sandrine.McCurdy@Hilton.com,Sandrine McCurdy
Hilton San Antonio Airport,Hearon,Andy,+1 (806) 535-5401,+1 (210) 377-4607,78216,TX,San Antonio,611 N.W. Loop 410,www.HiltonSanAntonioap.com,andy.hearon@hilton.com,Andy Hearon
Hilton San Antonio Hill Country,Benedict,Teresa,,+1 (210) 767-5309,78251,TX,San Antonio,"9800 Westover Hills Blvd.,",www.SanAntonioHillCountry.Hilton.com,Teresa.Benedict@Hilton.com,Teresa Benedict
Hofmann Ranch by Wedgewood Weddings,White,Jackie,+1 (210) 240-6704,+1 (830) 931-9257,78009,TX,Castroville,448 PR 4742,www.hofmannranch.com,HofmannRanchGM@WedgewoodWeddings.com,Jackie White
Holy Trinity Banquet Hall,Gonzales,Deacon,,+1 (210) 497-0700,78258,TX,San Antonio,20523 Huebner Rd.,www.HolyTrinitysat.org,deaconray@HolyTrinitysat.org,Deacon Ray Gonzales
Hotel Valencia Riverwalk,Seaborn,Stacy,,+1 (210) 227-9700,78205,TX,San Antonio,150 E. Houston Street,www.hotelvalencia-riverwalk.com,sseaborn@valenciagroup.com,Stacy Seaborn
House of Blooms Florist,Fairchild,Gina,,+1 (210) 372-9444,78023,TX,Helotes,"12274 Bandera Rd, Suite 122",www.houseofbloomsweddings.com,Ginaf@houseofbloomstx.com,Gina Fairchild
Hyatt Hill Country Resort,Soltas,Katie,+1 (219) 775-0307,+1 (210) 520-4021,78251,TX,San Antonio,"9800 Hyatt Resort Drive,",,kathryn.soltas@hyatt.com,Katie Soltas
IllumiFloor,Cheney,David,,+1 (210) 479-5541,78248,TX,San Antonio,14051 Blanco Road,www.Illumifloor.com,info@dpceventservices.com,David Cheney
Illusions Rentals & Designs,Ontjes,Laurie,,+1 (210) 223-2742,78219,TX,San Antonio,"1107 AT&T Center Pkwy, Ste 111",www.illusionsrentals.com,lontjes@therkgroup.com,Laurie Ontjes
Image Avenue Clothiers,Zavala,Phil & Rosy,+1 (210) 872-8786,+1 (210) 267-5866,78201,TX,San Antonio,"4522 Fredericksburg Rd. #B-45,A",www.imageaveclothiers.com,imageave99@icloud.com,Phil & Rosy Zavala
Indulgences Hair & Body Salon,Foreman,Lilian,,+1 (210) 384-0134,78213,TX,San Antonio,"8055 West Ave, Suite 121",www.indulgenceshairsalonsanantonio.com,indulgenceshb@sbcglobal.net,Lilian Foreman
Ivy Hall,McDiarmid,Tim,,,78210,TX,San Antonio,1127 South St. Mary's Street,ivyhallevents.com,tim@timthegirl.com,Tim McDiarmid
JAX Studio,Roberson,Jacqueline,+1 (512) 903-3043,+1 (210) 990-5299,78212,TX,San Antonio,1806 Blanco Rd,www.jaxstudiosa.com,Jax@jaxstudiosa.com,Jacqueline Roberson
JC Events,Craft,Jennifer,,+1 (210) 643-7133,78248,TX,San Antonio,14924 Forward Pass,www.eventsbyjennifercraft.com,jennifer@jcraftevents.com,Jennifer Craft
Jersson Luna Photography,Luna,Jersson,,+1 (210) 848-8121,78216,TX,San Antonio,9910 San Pedro,https://jerssonlunaphotography.com/,jerssonlunaphotography@gmail.com,Jersson Luna
Jimmy Lyn's Event Planning & Catering,Fagala,Cayce,+1 (210) 255-7483,+1 (210) 618-4063,78015,TX,Fair Oaks Ranch,30281 Saratoga Lane,www.jimmylyns.com,cayce@jimmylyns.com,Cayce Fagala
Jingu House & Japanese Tea Garden,Hasslocher,Caryn,,+1 (210) 226-5919,78212,TX,San Antonio,3853 N. St. Mary's,www.jinguhousesa.com,caryn@freshhorizons.com,Caryn Hasslocher
JL Bar Ranch Resort and Spa,James,,,+1 (855) 414-3337,76950,TX,Sonora,3500 Private Rd 2254,www.jlbar.com,vickicolacicco@yahoo.com,James
Joe Caruso,Caruso,Joe,+1 (847) 331-0247,+1 (847) 331-0247,78248,TX,San Antonio,22 Ancient Bend,www.joeshow.com,joeshowdotcom@yahoo.com,Joe Caruso
Jonathan Ivy Photography,Foster,Samantha & Jonathan,,+1 (281) 224-1937,78230,TX,San Antonio,2603 Whisper Hill St,http://www.jonathanivyphoto.com/,info@jonathanivy.com,Samantha & Jonathan Foster
Jose Fernando Studio,Fernando,Jose,,+1 (210) 710-9705,78201,TX,San Antonio,1636 Sacramento Street,www.JoseFernandoStudio.com,josefernandostudio@gmail.com,Jose Fernando
Joyful Unions San Antonio,Mosley,Sally,,+1 (210) 440-2885,78148,TX,Universal City,126 Sage Drive,https://joyfulweddingofficiantsanantonio.com/,joyfulunions@gmail.com,Sally Mosley
Joyous 442 Event Planning + Design,Thayer,Vicki,,+1 (210) 232-2230,78114,TX,Floresville,1843 Sunnyside Rd,http://www.joyous442.com,info@joyous442.com,Vicki Thayer
Julian Gold Bridal Salon,Young,Melinda,+1 (210) 857-4274,+1 (210) 824-2493,78212,TX,San Antonio,4109 McCullough,www.juliangold.com,myoung@juliangold.com,Melinda Young
Kelly Lepeska,Lepeska,Kelly,,+1 (330) 354-1587,78258-7206,TX,San Antonio,1502 Wild Peak,www.kellylepeska.com,Kalepeska@yahoo.com,Kelly Lepeska
Kendall Point,Voss,Kristin,+1 (210) 710-0540,+1 (830) 229-5090,78006,TX,Boerne,20 Guthrie Road,www.kendallpoint.com,kristin@kendallplantation.com,Kristin Voss
Keziah Bevans Bridal Hair and Makeup Artistry,Thomas,Keziah,,+1 (224) 200-2934,78205,TX,San Antonio,"118 Broadway, Suite 210",https://www.keziahbevans.com,info@keziahbevans.com,Keziah Bevans Thomas
Khalil and Co. Bridal and Beauty,Khalil,Adriana,,+1 (210) 848-7630,78229,TX,San Antonio,8746 Wurzbach Rd Suite 201,https://www.khalilcobeauty.com/,adriana_khalil@hotmail.com,Adriana Khalil
Kiwi Kouture Boudoir Photography,Miller,Dane,,+1 (210) 735-5555,78201,TX,San Antonio,1112 West Avenue,www.kiwikouture.com,dane@doskiwis.com,Dane Miller
Klarity Photos,Williams,Alvinn,,+1 (210) 765-2211,78155,TX,Seguin,2151 Silo Ridge,https://www.klarityphotos.com/,Klarity_photos@yahoo.com,Alvinn Williams
"Kneaded Cupboard, The",Parham,Rose,+1 (210) 887-0970,+1 (210) 887-0970,78121,TX,La Vernia,125 Diamond View Drive,https://thekneadedcupboard.com/,rose@thekneadedcupboard.com,Rose Parham
La Bonne Vie Ranch,Jones,Carroll,+1 (254) 661-2721,+1 (254) 661-2721,78624,TX,Fredericksburg,1872 Pfiester Rd,LaBonneVieRanch.com,info@labonnevieranch.com,Carroll Jones
La Cantera Resort & Spa,Jarzombek,Nikki,,+1 (210) 558-5584,78256,TX,San Antonio,16641 La Cantera Pkwy,www.LaCanteraResort.com,njarzombek@lacanteraresort.com,Nikki Jarzombek
La Escondida Celebration Center,Berkley,Candy,,+1 (210) 313-4209,78023,TX,Helotes,9888 Escondida Road,www.laescondidacelebrationcenter.com,laescondidaevents@gmail.com,Candy Berkley
Lambermont Events,Liston,Dona,+1 (956) 893-2046,+1 (210) 271-9145,78208,TX,San Antonio,950 E. Grayson Street,www.lambermontevents.com,info@lambermontevents.com,Dona Liston
Las Fuentes By Emporium,Cavazos,Yaramin,,+1 (210) 787-0849,78253,TX,San Antonio,"11624 Culebra, Suite 501",www.LasFuentesBanquetHall.com,lasfuentesbyemporium@yahoo.com,Yaramin Cavazos
Lassos by Design,Erskine,Thelma,,+1 (210) 268-2600,78154,TX,Schertz,11720 Clear WL,www.lassosbydesign.com,thelma@lassosbydesign.com,Thelma Erskine
Lasting Impressions by Design,Doll,Joanne,,+1 (210) 209-2755,78249,TX,San Antonio,7702 Parkwood Way,https://www.lastingimpressionsbydesign.com/,events@lastingimpressionsbydesign.com,Joanne Doll
Laura Stiles Photo,Stiles,Laura,,+1 (512) 964-0823,78245,TX,San Antonio,9624 Rousseau,https://www.laurastilesphoto.com/,laurareedstiles@icloud.com,Laura Stiles
Lee Coronado Photography,Coronado,Lee,+1 (210) 426-2626,+1 (210) 495-3686,78258,TX,San Antonio,18011 Crystal Knoll,www.leecoronado.com/,Coronado7@gmail.com,Lee Coronado
Lesley's Flowers,McMillan,Lesley,+1 (830) 480-4058,+1 (830) 769-3585,78026,TX,Jourdanton,1302 SIMMONS AVENUE,https://www.lesleysflowersandgifts.com/,flowershop78026@gmail.com,Lesley McMillan
Leslie Lane Llama Farm,Leslie,Susan,+1 (830) 401-0819,+1 (830) 401-0819,78155,TX,Seguin,651 Land Ranch Rd,http://www.leslielanellamas.com/,leslielanellamas@gmail.com,Susan Leslie
Limelight San Antonio,Rindner,Josh,+1 (210) 842-4409,+1 (210) 842-6620,78249,TX,San Antonio,"6391 De Zavala Road, Suite 221",www.limelightsanantonio.com,pictures@limelightsanantonio.com,Josh Rindner
Linda Rukavina Photography,Rukavina,Linda,+1 (210) 323-8825,+1 (830) 331-8609,78006,TX,Boerne,102 S Main St,www.rukavinaphotography.com,linda@rukavinaphotography.com,Linda Rukavina
Liv and Love Bridal,Duran,Olivia,+1 (210) 262-1703,+1 (210) 698-7373,78257,TX,San Antonio,"25035 IH-10 W. Frontage Rd, #102",www.livlovebridal.com,olivia@LivandLoveBridal.com,Olivia Duran
Lo Caruthers Photography,Caruthers,Lo,,+1 (210) 776-5602,78109,TX,Converse,10419 Queensland Way,www.locaruthers.com,laurencaruthers@me.com,Lo Caruthers
Los Encinos Hill Country Estate,Dominguez,Bertha,+1 (210) 573-4078,+1 (210) 698-1654,78255,TX,San Antonio,24183 Boerne Stage Road,www.LosEncinos.com,bertha@losencinos.com,Bertha Dominguez
Lost Mission,Wiens,Sara,+1 (cel) 410-7378,+1 (210) 323-1955,78070,TX,Spring Branch,2101 Anhalt Road,www.lostmission.com,sara@lostmission.com,Sara Wiens
Love Story Addicts,Gafke,Heather,,+1 (713) 560-8952,78259,TX,San Antonio,18523 Gran Mesa,www.lovestoryaddicts.com,Hgafke@lovestoryaddicts.com,Heather Gafke
"Love, Lipstick and Lashes",Gorman,Laura,+1 (917) 318-2538,+1 (917) 318-2538,78154,TX,Selma,"15069 IH 35 N, Bldg 2121, Ste #26",www.love-lipsticklashes.com,laura.gorman1@gmail.com,Laura Gorman
Lumen Events,Cabrera Boyd,Tania,,+1 (210) 771-4107,78230,TX,San Antonio,"13409 NW Military Hwy, Suite 108",www.LumenEvents.net,tania@lumenevents.net,Tania Cabrera Boyd
Luxe Appel Social Events,Elaiho,Adesuwa,+1 (210) 540-7449,+1 (210) 540-7449,78205,TX,San Antonio,"700 N. St. Mary's Street, Suite 1400",www.luxeappel.com,Contact@luxeappel.com,Adesuwa Elaiho
Luxe Beauté Atelier (Irene O'Brien Makeup),O'Brien,Irene,,+1 (347) 242-9513,78205,TX,San Antonio,"118 Broadway, Suite 335",https://irenecobrien.com/portfolio/,info@irenecobrien.com,Irene O'Brien
Mad Mad Photo Booths,Newberry,Shannon,+1 (210) 563-5665,+1 (210) 971-4623,78240,TX,San Antonio,8107 Babe Ruth,madmadphotobooths.com,info@madmadphotobooths.com,Shannon Newberry
Madame Make-Up On Location,Giguere,Elizabeth,+1 (210) 901-0149,+1 (210) 826-0138,78212-3451,TX,San Antonio,"2520  N. Main Ave, Suite A",www.madamemakeup.com,mmakeup@yahoo.com,Elizabeth Giguere
Magnolia Gardens on Main,Pozo,Gonzalo,+1 (210) 685-3123,+1 (210) 685-3123,78212,TX,San Antonio,2030 N. Main Ave.,www.magnoliagardensonmain.com,gonzalo.o.pozo@gmail.com,Gonzalo Pozo
Magnolia Halle,Schleicher,Tricia,+1 (512) 675-0205,+1 (210) 496-0828,78240,TX,San Antonio,10333 Huebner Rd,www.magnoliaHall.com,getinfo@magnoliahall.com,Tricia Schleicher
Marby's Brides,Shaw,Marbella,,+1 (210) 900-6775,78218,TX,San Antonio,5034 Guinevere Dr.,,shmarbyshaw@gmail.com,Marbella Shaw
Marriott Plaza San Antonio,Lemasters,Geoff,+1 (903) 804-6933,+1 (210) 353-8055,78205,TX,San Antonio,555 South Alamo Street,marriott.com/satpl,geoff.lemasters@whitelodging.com,Geoff Lemasters
Masquerade DJ Service,Calderon,Ernest,+1 (210) 789-3535,+1 (210) 789-3535,78258,TX,San Antonio,"19179 Blanco Rd, Ste 105, PMB 101",www.djmasquerade.com,djsatx@gmail.com,Ernest Calderon
Matamoros Restaurante Y Cantina,DJahansouzi,Fara,,+1 (210) 558-3200,78249,TX,San Antonio,12844 IH-10 West,www.matamorostx.com,matamorostx@yahoo.com,Fara DJahansouzi
May Carlson Photography,Carlson,May,,+1 (210) 560-7099,78130,TX,New Braunfels,143 Ruger Path,www.maycarlson.com,maycarlson@me.com,May Carlson
Mayra Eads Photography,Eads,Mayra,,+1 (830) 370-8716,78025,TX,Ingram,P.O. Box 1155,www.Mayraeads.com,mephotographytx@gmail.com,Mayra Eads
MBP PhotoBooth,Buenrostro,Marco,,+1 (210) 307-6111,78216,TX,San Antonio,402 West Rhapsody,www.mbpphotoboothco.com,mbpphotoboothco@gmail.com,Marco Buenrostro
"McNay Art Museum, The",McGarraugh,Julie,,+1 (210) 805-1761,78209-0069,TX,San Antonio,6000 N. New Braunfels,www.mcnayart.org,julie.mcgarraugh@mcnayart.org,Julie McGarraugh
Meemo's Bakery & Cafe,Palacios,Amber,,+1 (210) 390-1592,78217,TX,San Antonio,2611 Wagon Wheel St.,www.meemosbakery.com,meemosbakery@yahoo.com,Amber Palacios
Melissa & Arturo Photography,Gonzalez,Melissa,,+1 (210) 421-8845,78250,TX,San Antonio,9339 Brushy Point St.,melissaandarturo.com,hello@melissaandarturo.com,Melissa Gonzalez
Mind Your Self,Groves,Carla,+1 (210) 819-1435,+1 (210) 564-9116,78228,TX,San Antonio,"4203 Woodcock Drive, Suite 216",www.mindyourselfcounseling.com,carla@mindyourselfcounseling.com,Carla Groves
Mission Trail Events,Deleon,Judi,,+1 (210) 386-3722,78210,TX,San Antonio,1135 Mission Road,http://www.blessedsacramentacademysa.org,info@missiontrailevents.com,Judi Deleon
Modern Wellness Counseling,Rodriguez,Priscilla,,+1 (210) 279-3597,78216,TX,San Antonio,"7400 Blanco Road, Suite 250",www.modernwellnesscounseling.com,priscilla@modernwellnesscounseling.com,Priscilla Rodriguez
Moments By Quattro,Hinojosa,Jesus,,+1 (210) 712-9861,78238,TX,San Antonio,"6904 Bandera Road, Suite 3",https://www.momentsbyquattro.com/,jesus_hinojosa_g@yahoo.com,Jesus Hinojosa
My Own Chef Catering,Bonewitz,Vickie,+1 (830) 456-3716,+1 (830) 997-5458,78624,TX,Fredericksburg,721 Brehmer Ln,http://www.myownchef.com/,office@myownchef.com,Vickie Bonewitz
NACE Alamo Chapter,Receivable,Accounts,,+1 (210) 599-0336,78209,TX,San Antonio,PO Box 6471,www.sanantonionace.com,ckenway@saweddings.com,Accounts Receivable
Nadler's Bakery,Mendez,Alexia,,+1 (210) 340-1021,78229,TX,San Antonio,1621 Babcock,www.Nadlers.com,info@nadlers.com,Alexia Mendez
Nelda Etheredge Harpist,Etheredge,Nelda,+1 (210) 473-8399,+1 (210) 829-4515,78209,TX,San Antonio,1248 Austin Hwy.  Suite 106-192,www.saharp.com,neldaetheredge@yahoo.com,Nelda Etheredge
New Braunfels Wedding Chamber,McCarty,Rhonda,,,,TX,New Braunfels,,www.nbweddingchamber.com,nbweddingchamber@gmail.com,Rhonda Hollon & Jill McCarty
Nicole Mera,Swift,Nikki,,+1 (210) 865-7874,78216,TX,San Antonio,13722 Embassy Row,www.nicolemera.com,nikki@nicolemera.com,Nikki Swift
Nolo Beauty Bar,Lozano,Sarah,,+1 (210) 412-2968,78223,TX,San Antonio,3254 Bob Billa Street,https://www.nolobeautybar.com,nolobeautybar@gmail.com,Sarah Lozano
Notable Design,Dunn,Colleen,,+1 (210) 385-0231,78249,TX,San Antonio,5962 Heather View,www.notabledesigngraphics.com,notabledesigninfo@gmail.com,Colleen Dunn
Oak Valley Vineyards Restaurant,Colley,Beth,,+1 (830) 980-8033,78266,TX,San Antonio,27315 Natural Bridge Caverns Rd,www.oakvalleyvineyardsrestaurant.com,OakValleyVineyard@gmail.com,Beth and Tim Colley
Oakleaf Florist,Gonzales,Debby,+1 (210) 573-5919,+1 (210) 653-8180,78217,TX,San Antonio,4185 Naco-Perrin,www.oakleaf-flowers.com,oakleaf@oakleafflorist.com,Debby Gonzales
"Oaks at Heavenly, The",Ortiz,Loretta,,+1 (210) 988-3334,78023,TX,Helotes,18826 Bandera Rd,www.oaksatheavenly.com,Loretta@oaksatheavenly.com,Loretta Ortiz
"Olive Branch Floral, Design & Boutique, The",Willmon,Tiffiney,+1 (936) 223-2527,+1 (830) 268-8435,78064,TX,Pleasanton,506 W. Oaklawn Rd,https://vintagelaceantiques.com/weddings,tiffiney_willmon@yahoo.com,Tiffiney Willmon
Olivia Grace Bridal,Owen,Razil,+1 (210) 313-0363,+1 (210) 876-5366,78212,TX,San Antonio,4343 McCullough,http://oliviagracebridalshop.com/,razil@oliviagracebridalshop.com,Razil Suarez Owen
Olympia Hills Golf & Event Center,Rein,Katie,,+1 (210) 945-4653,78148,TX,Universal City,12900 Mt. Olympus Drive,www.OlympiaHillsGolf.com,kchauret@olympiahillsgolf.com,Katie Chauret Rein
Omni Hotel-Colonnade,Vina,Sue,+1 (210) 834-0694,+1 (210) 699-5827,78230,TX,San Antonio,9821 Colonnade Blvd.,www.OmniSanAntonio.com,svina@omnihotels.com,Sue Vina
Omni La Mansion del Rio,James,Sarah,,+1 (210) 518-1052,78205,TX,San Antonio,112 College Street,www.OmniHotels.com/LaMansion,sarah.james@omnihotels.com,Sarah James
One-Stop Professional DJ Services,Rodriguez,J.J.,+1 (210) 601-7074,+1 (210) 490-5800,78259,TX,San Antonio,3411 Martesia St.,www.onestoppartyplanners.com,jjrodriguez@earthlink.net,J.J. Rodriguez
Orchids In Blue,Milo,Lidia,,+1 210-838-0535,78251,TX,San Antonio,4114 Cactus Oaks Road,www.orchidsinblue.com,lidiamilo@yahoo.com,Lidia Milo
"Overlook Event Center, The",Frakes,John,,+1 (830) 751-3868,78056,TX,Mico,169 Private Rd 1710,www.theoverlookeventcenter.com,info@theoverlookeventcenter.com,John Frakes
Paloma Blanca Mexican Cuisine,Mendoza,Nelly,,+1 (210) 822-6151,78209,TX,San Antonio,5800 Broadway,www.PalomaBlanca.net,nelly@palomablanca.net,Nelly Mendoza
Pat O'Brien's Grand Promenade,Napier,Christa,+1 (210) 378-3453,+1 (210) 212-3957,78205,TX,San Antonio,121 Alamo Plaza,www.TheGrandPromenade.com,sanantoniosales2@patobriens.com,Christa Napier
Paty Araujo Photography,Duet,Lidia,+1 (985) 253-1087,+1 (985) 253-1087,78065,TX,Poteet,557 Majestic Oaks Dr.,http://patyaraujophotography.com,patysphoto@gmail.com,Lidia Patricia Duet
Pearl Brewery LLC,Millsap,Mesha,,+1 (210) 212-7260,78215,TX,San Antonio,"303 Pearl Parkway, Suite 300",www.atpearl.com/events,mmillsap@pearlbrewery.com,Mesha Millsap
Pedrotti's Ranch,Pedrotti,Anthony,+1 (210) 508-1979,+1 (210) 695-3533,78023,TX,Helotes,13715 FM 1560 N.,www.pedrottis.com,anthony@pedrottis.com,Anthony Pedrotti
PG Special Events Catering,Lopez,Jesse,,+1 (210) 843-7229,78163,TX,Bulverde,"29782 US Hwy 281, Ste 220",www.pgSpecialEvents.com,pgevents24@yahoo.com,"Jesse Lopez, Jr."
Philip Thomas Photography,Thomas,Philip,,+1 (210) 833-1168,78258,TX,San Antonio,25111 Arrow Glen,www.philipthomas.com,info@philipthomas.com,Philip Thomas
Phoenician Ballroom,Harb,Joseph,+1 (210) 571-4716,+1 (210) 696-5937,78240,TX,San Antonio,6070 Babcock,www.StGeorgeMaroniteCenter.com,phoenicianballroom@gmail.com,Joseph Harb
Phoenix Hospitality Group,Stallcup,Charles,+1 (210) 260-7670,+1 (210) 388-0355,78210,TX,San Antonio,518 Adams St,www.phoenixhospitalityGroup.com,charles@phg-tx.com,Charles Stallcup
Plaza Club,Doris,Paula,,+1 (210) 227-4191,78205,TX,San Antonio,"100 W. Houston, Suite 2100",www.myplazaclub.com,paula.doris@myplazaclub.com,Paula Doris
Plaza Lecea,Holguin,Nancy,+1 (210) 834-2018,+1 (210) 615-0009,78240,TX,San Antonio,"5441 Babcock Road, Suite 200A",www.PlazaLecea.com,nholguin@ppdg.com,Nancy Holguin
Portraits By Roxann Lynn,Gallegos,Roxann,,+1 (830) 279-1828,78872,TX,La Pryor,PO Box 356,https://texassharpshooter.com,roxann@portraitsbyroxannlynn.com,Roxann Gallegos
Power Sounds Event Entertainment,DePaz,David,,+1 (210) 365-0052,78216,TX,San Antonio,402 West Rhapsody Dr.,www.powersoundsdj.com,powersoundsdj@gmail.com,David DePaz
"Printed Bride, The",DeLoach Kayga,Brandi,,+1 (512) 277-4985,78653,TX,Manor,19312 WT Gallaway St.,https://theprintedbride.com/,brandi@theprintedbride.com,Brandi DeLoach Kayga
Raise the Bar,Lugo,Debborah,,+1 (210) 639-3375,78245,TX,San Antonio,5525 Mansions Bluffs,www.raisethebartexas.com,deborah@raisethebartexas.com,Debborah Lugo
Raul's Photography,Medina,Raul,+1 (210) 849-2146,+1 (210) 725-7117,78251,TX,San Antonio,9459 Mulberry Path,www.raulsphotography.com,raulsphotography@yahoo.com,Raul Medina
Ray Ellison Ballroom,Sutterfield,Kristi,+1 (210) 849-9373,+1 (210) 696-3800,78231,TX,San Antonio,3625 Paesanos Parkway,www.SABuilders.com,ksutterfield@sabuilders.com,Kristi Sutterfield
Red Berry Mansion,Torres,Erica,+1 (210) 307-9133,+1 (210) 307-9130,78258,TX,San Antonio,"21702 Hardy Oak Blvd., Ste. 105",www.RedBerryMansion.com,americalynne@gmail.com,Erica Torres
Reese Events Group,Reese,Ryan,+1 (210) 363-8160,+1 (210) 340-4088,78216,TX,San Antonio,402 West Rhapsody,https://www.reeseeventsgroup.com/,ryan@reeseeventsgroup.com,Ryan Reese
Reiley + Rose,Reiley,Megan,,+1 (830) 660-2328,78155,TX,Seguin,125 Echo Lane,http://www.reileyandrose.com/,megan@reileyandrose.com,Megan Reiley
Rex Formal Wear-San Pedro,Barnes,Quincy,+1 (210) 710-5275,+1 (210) 824-2889,78216,TX,San Antonio,6844 San Pedro Ave,www.rexformalwear.com,Quincy@rexformalwear.com,Quincy Barnes
Rio Cibolo Ranch,Christopher,Margie,+1 (210) 857-7077,+1 (830) 914-3325,78201,TX,San Antonio,P.O. Box 5470,www.RioCiboloOutdoorWeddings.com,info@riociboloranch.com,Margie Christopher
Rio Plaza,Blankenship,Christine,,+1 (210) 293-6113,78205,TX,San Antonio,"245 E. Commerce, Ste 100",www.rioplaza.net,christine@rioplaza.net,Christine Blankenship
River City Catering,Cameron,Alane,+1 (830) 237-7910,+1 (830) 620-1900,78130,TX,New Braunfels,2771 FM 725,www.RiverCityCatering.com,alane@rivercitycatering.com,Alane Cameron
River Terrace by Biga,Shea,Perny,,+1 (210) 225-0722,78205,TX,San Antonio,"203 S. St. Mary's Street,  Ste 100",RiverterracebyBiga.com,perny@biga.com,Perny Shea
Riverside Catering,Zoeller,Cindy,+1 (830) 765-2519,+1 (830) 765-2479,78006,TX,Boerne,346D Ammann Rd,https://riverside-catering.com/,Cindy@riversidebbqcatering.com,Cindy Zoeller
Rockin' B Ranch,Riordan,Janice,+1 (210) 421-1417,+1 (830) 510-6844,78063,TX,Pipe Creek,776 Mountain View Lane,https://www.rockinbranchtx.com/,janice@rockinbranchtx.com,Janice Riordan
Rosemary's Catering,,,,+1 (210) 223-2680,78205,TX,San Antonio,1220 E. Commerce,www.rosemaryscatering.com,,
Rosenberg Skyroom,Ponce,Stephanie,,+1 (210) 829-2733,78212,TX,San Antonio,"4301 Broadway, CPO #307",www.RosenbergSkyRoom.com,slsauced@uiwtx.edu,Stephanie Ponce
"Royal Flush, A",Daniels,Brian,,+1 (210) 414-4745,78254,TX,San Antonio,9206 Wickheather St,www.aroyalflush.net,bdaniels7315@gmail.com,Brian Daniels
Rustic Romance Rentals,Gonzalez,Sandy,,+1 (210) 273-5571,78623,TX,Fischer,190 Paint Horse Ln,www.rusticromancerentals.com,rusticromance15@gmail.com,Sandy Gonzalez
Ryan Hamilton Photography,Hamilton,Ryan,,+1 210-663-4068,78245,TX,San Antonio,9418 Gold Hill,www.ryanhamiltonphoto.com,rhamilton138@yahoo.com,Ryan Hamilton
San Antonio Botanical Garden,Rodriguez,Eliana,,+1 (210) 536-1400,78209,TX,San Antonio,P. O. Box 6569,www.sabot.org,erodriguez@sabot.org,Eliana Rodriguez
San Antonio Wedding Professionals,Henry,Audrie,,+1 (210) 504-9009,78254,TX,San Antonio,8319 Dragon St,https://saweddingpros.com/,info@saweddingpros.com,Audrie Henry
San Fernando Hall,Cortez-Lara,Eloise,+1 (210) 827-7302,+1 (210) 227-1297,78205,TX,San Antonio,231 West Commerce,www.sfcathedral.org/venues,ecortez-lara@sfcathedral.org,Eloise Cortez-Lara
Sarah Katherine Portrait Design,Gaitan,Sarah,,+1 (830) 275-8682,78253,TX,San Antonio,14921 Goldfinch Way,sarahkportraits.com,sarahkportraits@gmail.com,Sarah Gaitan
Secrets by Miss Lisa,Blaschke,Lisa,,+1 (830) 481-3944,78132,TX,New Braunfels,333 Pinnacle Pkwy,www.secretsbymisslisa.com,lisa@lisaonlocation.com,Lisa Blaschke
ShastaGram Vintage Trailer Photo Booth,Buntzer,Nolan,,+1 (830) 609-8664,78130,TX,New Braunfels,532 Rock Street,,shastagramphoto@gmail.com,Nolan Buntzer
Sheraton Gunter Hotel,Puente,David,,+1 (210) 227-3241,78205,TX,San Antonio,205 E. Houston Street,www.sheratongunter.com/wedding-venues-in-san-antonio,dpuente@sheratongunter.com,David Puente
Signature Ice Sculptures,Thistlethwaite,Andrew & Danielle,+1 (574) 226-1595,+1 (210) 666-1301,78219,TX,San Antonio,4727 Cotton Belt,www.signatureice.com,signatureicesatx@gmail.com,Andrew & Danielle Thistlethwaite
Sisterdale Dance Hall & Opera House,Rodriguez-Pierce,Anna,,+1 (210) 749-7456,78006,TX,Sisterdale,1210 Sisterdale Road,www.sisterdaledancehall.com,info@sisterdaledancehall.com,Anna Rodriguez-Pierce
Smoke In the Hills BBQ,Mann,Kelly,,+1 (830) 230-5500,78006,TX,Boerne,31 Walnut Grove Rd,http://www.smokeinthehillsbbq.com/,Kelly@smokeinthehillsbbq.com,Kelly Mann
Soigné & Co.,Espinoza,Judith,,+1 (210) 336-9641,78247,TX,San Antonio,15323 Clear Grove,www.soigne-co.com,soigne@soigne-co.com,Judith Espinoza
Sonja Westberg Harpist,Westberg,Sonja,,+1 (210) 415-5456,78260,TX,San Antonio,811 Synergy Hill,http://www.sonjawestbergharp.com/,sonjawestberg.txharp@gmail.com,Sonja Westberg
Southern Tapsters,Purtle,Jerry,,+1 (720) 550-9989,78132,TX,New Braunfels,125 Forest Trail,southerntapsters.com,southerntapsters@gmail.com,Jerry Purtle
Spice of Life Catering,Bomberg,Mike,+1 (210) 381-9619,+1 (210) 366-1220,78213,TX,San Antonio,1746 Lockhill-Selma,www.SpiceOfLifeSA.com,sales@spiceoflifesa.com,Mike Bomberg
"Spire, The  C/O Reata",Andrus,Ellen,,+1 (210) 710-6880,78205,TX,San Antonio,123 Heiman Street,,showcaseac@aol.com,Ellen Andrus
"St. Anthony Hotel, The",Nations,Libby,,+1 (210) 227-4392,78205,TX,San Antonio,300 East Travis St.,www.thestanthonyhotel.com,lnations@theStanthonyhotel.com,Libby Nations
St. Matthew's McDonald Family Center,Zarazua,Bernard,,+1 (210) 478-5001,78230,TX,San Antonio,10703 Wurzbach Road,https://stmatts.org/mcdonaldfamilycenter,bzarazua@stmatts.org,Bernard Zarazua
St. Paul Community Center,Davila,Mary,+1 (210) 413-7714,+1 (210) 736-0055,78228,TX,San Antonio,1201 Donaldson,www.StPaulCommunityCenter.org,mdavila@saintpaulsa.org,Mary Davila
Starlight Fireworks & Special Effects,Warwick,Tina,+1 (512) 801-5492,+1 (512) 801-5492,78748,TX,Austin,1617 Cattle Trail,www.Starlightfireworks.com,tina@starlightfireworks.com,Tina Warwick
Starlite Entertainment & Productions,Deleon,Henry,+1 (210) 386-3722,+1 (210) 733-3806,78212,TX,San Antonio,P. O. Box 12545,www.starlite-sa.com,dijudi@judideleon.com,Henry Brun & Judi Deleon
STEP,Blalock,Tammy,+1 (830) 570-2379,+1 (210) 560-1644,,,,,www.sotxep.com,tammy@atagirlphoto.com,Tammy Blalock
Stone Oak Jewelers,Bowling,DeAnna,+1 (210) 262-6612,+1 (210) 403-3900,78258,TX,San Antonio,"18730 Stone Oak Pkwy., Suite 104",www.stoneoakjewelers.com,deannabowling@aol.com,DeAnna Bowling
Straughan Photography,Straughan,Chrystina,+1 (210) 445-9837,+1 (210) 369-8215,78108,TX,Cibolo,3517 Columbia Street,www.SanAntonioWeddingPhotography.com,strphoto@gmail.com,Chrystina Straughan
Strawberry Pines,Henry,Darlene,,+1 (210) 296-1764,78065,TX,Poteet,1287 West FM 476,www.StrawberryPines.com,darlene@strawberrypines.com,Darlene Henry
Sun Gold Photography,Williams,Paula,+1 (830) 708-9665,+1 (830) 609-9018,78130,TX,New Braunfels,626 Calhoun Dr.,www.sungoldphotography.com,paula@sungoldphoto.com,Paula Williams
Sunset Ranch,Collins,Vicki,,+1 (830) 992-0001,78624,TX,Fredericksburg,123 Golden Sunset Trail,http://sunsetrancheventcenter.com/,sunsetrancheventcenter@gmail.com,Vicki Collins
Sunset Station,Hernandez,Molly,,+1 (210) 474-7643,78205,TX,San Antonio,1174 E. Commerce Street,,mnhernandez@therkgroup.com,Molly N. Hernandez
Sweet Traditions,Stansberry,Lynda,+1 (210) 287-4022,+1 (210) 287-4022,78233,TX,Live Oak,7414 Oak Marsh,www.sweettraditionscakes.com,lyndafoxstansberry@gmail.com,Lynda Stansberry
Tapatio Springs Hill Country Resort & Spa,Falloon,Jonathan,+1 (214) 929-9341,+1 (830) 537-4611,78006,TX,Boerne,1 Resort Way,www.TapatioResort.com,jfalloon@tapatio.com,Jonathan Falloon
Team One Luxury Charters,Medellin,Katie & Joey,,+1 (830) 237-2038,78130,TX,New Braunfels,PO Box 310115,https://www.teamoneluxurycharters.com/,teamoneluxurycharters@gmail.com,Katie & Joey Medellin
Terry Muska - Classical Guitarist,Muska,Terry,+1 (210) 363-6203,+1 (210) 363-6203,78232,TX,San Antonio,2243 Rippling Rill,www.terrymuska.com,tmuska@aol.com,Terry Muska
Texas Wedding Ministers,Taylor-Esparza,Kari,,+1 (210) 860-5680,78232,TX,San Antonio,14307 Turtle Rock Dr.,www.txweddingministers.com,info@everlastingelopements.com,Kari Taylor-Esparza
Tim the Girl Catering,McDiarmid,Tim,+1 (210) 687-0633,+1 (646) 241-6907,78210,TX,San Antonio,1127 South St. Mary's St,http://timthegirl.com/,tim@timthegirl.com,Tim McDiarmid
Timeless Moments by Design,Obregon,Susan,,+1 (210) 326-6205,78254,TX,San Antonio,9711 Quiet Lake,http://timelessmomentsbydesign.vpweb.com/,susan@timelessmomentsbydesign.com,Susan Obregon
Tin Can Custard Co.,Stannard,Jennifer,+1 (830) 446-8837,+1 (830) 446-8837,78006,TX,Boerne,607 E Blanco #1871,https://tincancustard.com/,tincancustard@gmail.com,Jennifer Stannard
Tower of the Americas,Boland,Jennifer,,+1 (210) 223-3101,78205,TX,San Antonio,739 East Cesar E. Chavez,www.toweroftheamericas.com,jboland@ldry.com,Jennifer Boland
True Flavors,Hernandez,Mark,+1 (210) 663-8772,+1 (210) 226-3670,78201,TX,San Antonio,1715 N. Trinity,www.trueflavors.com,mhernandez@trueflavors.com,Mark Hernandez
Under The Sun Photography,Rakowitz,Jessica,,+1 (830) 569-9784,78064,TX,Pleasanton,830 Rakowitz Lane,https://underthesunphotography.com/,jessica@underthesunphotography.com,Jessica Rakowitz
Unleashed Boudoir,Fryer,Lauren,+1 (210) 296-4213,+1 (210) 296-4213,78253,TX,San Antonio,2114 Nellie Way,www.unleashedboudoirsa.com,lauren@laurenfryer.com,Lauren Fryer
Uptown Flowers,Garza,William,,+1 (210) 224-9888,78205,TX,San Antonio,202 Broadway,www.uptownflowers.com,uptownflowers@aol.com,William Garza
Vega's DJ Photobooth Services,Vega,Robert,,+1 (210) 838-0688,78260,TX,San Antonio,411 Deer Cross Lane,www.vegasphotoboothsa.com,robertvegajr@vegasdjservices.com,Robert Vega
Vega's Event Group,Vega,Robert,+1 (210) 527-7840,+1 (210) 838-0688,78260,TX,San Antonio,411 Deer Cross Lane,www.vegaseventgroup.com,robert@vegaseventgroup.com,Robert Vega
"Veranda, The",Bomberg,Mike,+1 (210) 396-1409,+1 (210) 366-1220,78213,TX,San Antonio,1746 Lockhill Selma,www.theverandasa.com,chef@theverandasa.com,Mike Bomberg
"Very Good Hair Day, A",Coop,Mary,,+1 (210) 836-5885,78251,TX,San Antonio,2303 Frontier Trail,www.averygoodhairday.com,maryecoop@gmail.com,Mary Coop
"Villa at Cielo Vista, The",Dominguez,Bertha,,+1 (210) 698-1654,78255,TX,San Antonio,21350 Cielo Vista,www.TheVillaAtCieloVista.com,weddings@thevillaatcielovista.com,Bertha Dominguez
Village Venue,Moore,Micki,,+1 (830) 460-3500,78130,TX,New Braunfels,2032 Central Plaza,www.villagevenuenb.com,Micki@villagevenuenb.com,Micki Moore
"Vintage Bouquet, The",Mauricio-Flores,Ashley,,+1 (210) 510-8862,78215,TX,San Antonio,200 E Grayson #108,https://www.thevintagebouq.com/,info@thevintagebouq.com,Ashley Mauricio-Flores
"Vinyl Diva Studio, The",Short,Rhonda,,+1 (210) 834-8391,78251,TX,San Antonio,10650 Culebra Rd. Suite 104 - 143,www.thevinyldivastudio.etsy.com,thevinyldiva@outlook.com,Rhonda Short
Walstonphoto,Walston,Royce & Michelle,,+1 (210) 827-0784,78217,TX,San Antonio,4530 Bridgewood,http://www.walstonphoto.com,royce@walstonphoto.com,Royce & Michelle Walston
Walters Wedding Estates,Cruz,Sydney,,,75065,TX,Hickory Creek,1851 Turbeville Road,http://www.hiddenfallsevents.com/,scruz@waltersweddingestates.com,Sydney Cruz
Wanda Deagen Dance Studio,Deagen,Wanda,,+1 (210) 381-6625,78228,TX,San Antonio,206 Gettysburg Road,www.wandadeagen.com,wdeagen@wandadeagen.com,Wanda Deagen
Wedding & Event Designs By Pamela,Rodriguez,Pamela,,+1 (210) 887-8327,78163,TX,Bulverde,3785 Cremini Dr,www.wedbypamela.com,pamela@wedbypamela.com,Pamela Rodriguez
Wedding Fair Show,Enslow,Gary,+1 (210) 275-9510,+1 (210) 275-9510,78114,TX,Floresville,9207 CR 401,www.weddingfairshow.com,gary@weddingfairshow.com,Gary Enslow
"Weddings by Diana Boucher, LLC",Boucher,Diana,+1 (210) 854-8721,+1 (210) 854-8721,78023,TX,Helotes,"12274 Bandera Road, Ste 213",www.weddingsbydianaboucher.com,diana@weddingsbydianaboucher.com,Diana Boucher
Western Sky Wedding & Event Venue,Holliday,Lindsay,,+1 (830) 980-2226,78163,TX,Bulverde,315 Obst Road,www.WesternSkyEvents.com,lindsay@tejasrodeo.com,Lindsay Holliday
"Westin Riverwalk, The",Thiemann,Lori,,+1 (210) 444-6025,78205,TX,San Antonio,420 Market Street,www.westinriverwalk.com,Lori.Thiemann@Westin.com,Lori Thiemann
"Woodward House, The",Burney,Ferne,+1 (210) 508-4811,+1 (210) 732-4811,78212,TX,San Antonio,1717 San Pedro Ave.,www.TheWomansClubofsa.org,womansclubofsa@aol.com,Ferne Burney
Wyndham Garden San Antonio Riverwalk/Museum Reach Hotel,Weis,Cassandra,,+1 (210) 515-4555,78215,TX,San Antonio,103 9th Street,www.wyndham.com/hotels/21563,cassandra@wyndhamsahotel.com,Cassandra Weis
Wyndham San Antonio Riverwalk,Saldana,Isabel,,+1 (210) 362-6499,78205,TX,San Antonio,111 East Pecan Street,www.wyndhamsariverwalk.com,isabel.saldana@sawyn.com,Isabel Saldana